NORAD_CAT_ID,OBJECT_NAME,OBJECT_TYPE,EPOCH,MEAN_MOTION,ECCENTRICITY,INCLINATION,RA_OF_ASC_NODE,ARG_OF_PERICENTER,MEAN_ANOMALY,BSTAR,MEAN_MOTION_DOT,MEAN_MOTION_DDOT,TLE_LINE0,TLE_LINE1,TLE_LINE2,SEMIMAJOR_AXIS,PERIOD,APOGEE,PERIGEE,DECAYED
53589.0,STARLINK-4673,PAYLOAD,2024-05-16 22:45:34,15.08847322,0.0001811,53.2207,334.8433,87.468,272.652,3.4601e-05,2.63e-06,0.0,0 STARLINK-4673,1 53589U 22104B   24137.94831415  .00000263  00000-0  34601-4 0  9990,2 53589  53.2207 334.8433 0001811  87.4680 272.6520 15.08847322 96046,6917.858,95.437,540.976,538.47,0.0
53589.0,STARLINK-4673,PAYLOAD,2024-05-17 19:25:35,15.08833711,0.0001604,53.2154,330.974,100.3592,259.7581,0.00024611,3.63e-05,0.0,0 STARLINK-4673,1 53589U 22104B   24138.80944183  .00003630  00000-0  24611-3 0  9993,2 53589  53.2154 330.9740 0001604 100.3592 259.7581 15.08833711 95153,6917.9,95.438,540.874,538.655,0.0
53589.0,STARLINK-4673,PAYLOAD,2024-05-17 22:36:21,15.08838632,0.0001581,53.2205,330.3829,99.3278,260.7893,6.169e-05,6.94e-06,0.0,0 STARLINK-4673,1 53589U 22104B   24138.94191979  .00000694  00000-0  61690-4 0  9991,2 53589  53.2205 330.3829 0001581  99.3278 260.7893 15.08838632 96194,6917.885,95.438,540.843,538.656,0.0
53589.0,STARLINK-4673,PAYLOAD,2024-05-18 19:16:22,15.08851422,0.0001336,53.2167,326.5176,79.452,280.6623,0.00033704,5.082e-05,0.0,0 STARLINK-4673,1 53589U 22104B   24139.80303440  .00005082  00000-0  33704-3 0  9995,2 53589  53.2167 326.5176 0001336  79.4520 280.6623 15.08851422 95306,6917.845,95.437,540.635,538.786,0.0
53589.0,STARLINK-4673,PAYLOAD,2024-05-19 12:45:37,15.088403,9.82e-05,53.2163,323.2479,77.1022,283.008,9.6177e-05,1.243e-05,0.0,0 STARLINK-4673,1 53589U 22104B   24140.53167939  .00001243  00000-0  96177-4 0  9997,2 53589  53.2163 323.2479 0000982  77.1022 283.0080 15.08840300 96432,6917.879,95.438,540.424,539.065,0.0
53589.0,STARLINK-4673,PAYLOAD,2024-05-19 19:07:10,15.08815747,0.0001281,53.2182,322.0586,111.1099,249.0031,-0.0003902,-6.488e-05,0.0,0 STARLINK-4673,1 53589U 22104B   24140.79664796 -.00006488  00000-0 -39020-3 0  9999,2 53589  53.2182 322.0586 0001281 111.1099 249.0031 15.08815747 95451,6917.955,95.439,540.706,538.933,0.0
53589.0,STARLINK-4673,PAYLOAD,2024-05-20 20:33:21,15.08819859,7.32e-05,53.2165,317.3012,106.1765,253.9308,-0.00015897,-2.815e-05,0.0,0 STARLINK-4673,1 53589U 22104B   24141.85649724 -.00002815  00000-0 -15897-3 0  9997,2 53589  53.2165 317.3012 0000732 106.1765 253.9308 15.08819859 95614,6917.942,95.439,540.313,539.301,0.0
53589.0,STARLINK-4673,PAYLOAD,2024-05-21 18:48:44,15.08852793,8.94e-05,53.2175,313.135,133.5034,226.6032,0.0006903,0.00010719,0.0,0 STARLINK-4673,1 53589U 22104B   24142.78385209  .00010719  00000-0  69030-3 0  9993,2 53589  53.2175 313.1350 0000894 133.5034 226.6032 15.08852793 95756,6917.841,95.437,540.325,539.088,0.0
53589.0,STARLINK-4673,PAYLOAD,2024-05-22 20:14:54,15.08856114,9e-05,53.2172,308.3812,55.3329,304.7747,0.00035508,5.37e-05,0.0,0 STARLINK-4673,1 53589U 22104B   24143.84368671  .00005370  00000-0  35508-3 0  9995,2 53589  53.2172 308.3812 0000900  55.3329 304.7747 15.08856114 95918,6917.831,95.437,540.319,539.074,0.0
53589.0,STARLINK-4673,PAYLOAD,2024-05-23 18:30:18,15.088451,7.1e-05,53.2179,304.2153,97.0657,263.0415,-0.00015133,-2.696e-05,0.0,0 STARLINK-4673,1 53589U 22104B   24144.77104679 -.00002696  00000-0 -15133-3 0  9996,2 53589  53.2179 304.2153 0000710  97.0657 263.0415 15.08845100 96052,6917.865,95.437,540.221,539.239,0.0
53589.0,STARLINK-4673,PAYLOAD,2024-05-23 20:05:41,15.0884498,7.17e-05,53.218,303.9186,94.9574,265.15,-0.00013344,-2.411e-05,0.0,0 STARLINK-4673,1 53589U 22104B   24144.83728711 -.00002411  00000-0 -13344-3 0  9999,2 53589  53.2180 303.9186 0000717  94.9574 265.1500 15.08844980 97084,6917.865,95.437,540.226,539.234,0.0
53589.0,STARLINK-4673,PAYLOAD,2024-05-24 16:45:42,15.08843709,8.96e-05,53.2164,300.0567,57.4686,302.6392,4.9269e-05,4.97e-06,0.0,0 STARLINK-4673,1 53589U 22104B   24145.69840826  .00000497  00000-0  49269-4 0  9992,2 53589  53.2164 300.0567 0000896  57.4686 302.6392 15.08843709 97212,6917.869,95.437,540.354,539.114,0.0
53589.0,STARLINK-4673,PAYLOAD,2024-05-25 13:25:43,15.08840484,9.69e-05,53.2175,296.1817,125.3804,234.7279,0.00017745,2.538e-05,0.0,0 STARLINK-4673,1 53589U 22104B   24146.55953009  .00002538  00000-0  17745-3 0  9997,2 53589  53.2175 296.1817 0000969 125.3804 234.7279 15.08840484 96322,6917.879,95.438,540.414,539.074,0.0
53589.0,STARLINK-4673,PAYLOAD,2024-05-26 13:16:31,15.08837533,0.0001034,53.2185,291.727,68.8387,291.2716,4.2807e-06,-2.2e-06,0.0,0 STARLINK-4673,1 53589U 22104B   24147.55313796 -.00000220  00000-0  42807-5 0  9997,2 53589  53.2185 291.7270 0001034  68.8387 291.2716 15.08837533 96479,6917.888,95.438,540.468,539.038,0.0
53589.0,STARLINK-4673,PAYLOAD,2024-05-26 14:51:54,15.08838179,8.02e-05,53.2182,291.4298,115.1477,244.9598,-4.8683e-05,-1.062e-05,0.0,0 STARLINK-4673,1 53589U 22104B   24147.61937701 -.00001062  00000-0 -48683-4 0  9995,2 53589  53.2182 291.4298 0000802 115.1477 244.9598 15.08838179 97506,6917.886,95.438,540.306,539.196,0.0
53589.0,STARLINK-4673,PAYLOAD,2024-05-26 16:27:17,15.08839235,8.06e-05,53.2184,291.1323,106.7508,253.3573,-3.5502e-05,-8.53e-06,0.0,0 STARLINK-4673,1 53589U 22104B   24147.68561623 -.00000853  00000-0 -35502-4 0  9991,2 53589  53.2184 291.1323 0000806 106.7508 253.3573 15.08839235 97511,6917.883,95.438,540.305,539.19,0.0
53589.0,STARLINK-4673,PAYLOAD,2024-05-27 14:42:41,15.08836578,8.28e-05,53.2182,286.9686,82.1931,277.9155,0.00012088,1.636e-05,0.0,0 STARLINK-4673,1 53589U 22104B   24148.61297568  .00001636  00000-0  12088-3 0  9990,2 53589  53.2182 286.9686 0000828  82.1931 277.9155 15.08836578 97654,6917.891,95.438,540.329,539.183,0.0
53589.0,STARLINK-4673,PAYLOAD,2024-05-27 16:18:04,15.08836853,8.3e-05,53.2182,286.6712,82.1464,277.9622,0.00012194,1.653e-05,0.0,0 STARLINK-4673,1 53589U 22104B   24148.67921575  .00001653  00000-0  12194-3 0  9995,2 53589  53.2182 286.6712 0000830  82.1464 277.9622 15.08836853 96648,6917.89,95.438,540.329,539.181,0.0
53589.0,STARLINK-4673,PAYLOAD,2024-05-28 14:33:28,15.08836915,8.92e-05,53.2185,282.5076,86.8786,273.2308,0.00010186,1.334e-05,0.0,0 STARLINK-4673,1 53589U 22104B   24149.60657776  .00001334  00000-0  10186-3 0  9993,2 53589  53.2185 282.5076 0000892  86.8786 273.2308 15.08836915 97803,6917.89,95.438,540.372,539.138,0.0
53589.0,STARLINK-4673,PAYLOAD,2024-05-29 12:48:52,15.08838862,8.92e-05,53.2183,278.3449,91.7247,268.3847,4.2307e-05,3.86e-06,0.0,0 STARLINK-4673,1 53589U 22104B   24150.53393934  .00000386  00000-0  42307-4 0  9997,2 53589  53.2183 278.3449 0000892  91.7247 268.3847 15.08838862 96923,6917.884,95.438,540.366,539.132,0.0
53589.0,STARLINK-4673,PAYLOAD,2024-05-29 14:24:15,15.08839171,8.84e-05,53.2181,278.0475,90.5803,269.5291,4.1841e-05,3.78e-06,0.0,0 STARLINK-4673,1 53589U 22104B   24150.60017906  .00000378  00000-0  41841-4 0  9990,2 53589  53.2181 278.0475 0000884  90.5803 269.5291 15.08839171 97957,6917.883,95.438,540.359,539.136,0.0
53589.0,STARLINK-4673,PAYLOAD,2024-05-29 17:35:01,15.08839696,8.74e-05,53.218,277.4528,85.9884,274.1208,4.1461e-05,3.72e-06,0.0,0 STARLINK-4673,1 53589U 22104B   24150.73265867  .00000372  00000-0  41461-4 0  9997,2 53589  53.2180 277.4528 0000874  85.9884 274.1208 15.08839696 97978,6917.881,95.438,540.351,539.142,0.0
53589.0,STARLINK-4673,PAYLOAD,2024-05-30 14:15:02,15.08842042,8.74e-05,53.2175,273.588,80.5822,279.5268,0.0001124,1.502e-05,0.0,0 STARLINK-4673,1 53589U 22104B   24151.59377660  .00001502  00000-0  11240-3 0  9994,2 53589  53.2175 273.5880 0000874  80.5822 279.5268 15.08842042 98103,6917.874,95.437,540.344,539.135,0.0
53589.0,STARLINK-4673,PAYLOAD,2024-05-30 17:25:48,15.08846567,9.2e-05,53.218,272.9928,80.254,279.8556,0.00013985,1.939e-05,0.0,0 STARLINK-4673,1 53589U 22104B   24151.72625307  .00001939  00000-0  13985-3 0  9995,2 53589  53.2180 272.9928 0000920  80.2540 279.8556 15.08846567 97109,6917.86,95.437,540.362,539.089,0.0
53589.0,STARLINK-4673,PAYLOAD,2024-05-31 12:30:26,15.08843831,9.87e-05,53.2178,269.4256,79.4227,280.6876,0.00010578,1.396e-05,0.0,0 STARLINK-4673,1 53589U 22104B   24152.52113514  .00001396  00000-0  10578-3 0  9998,2 53589  53.2178 269.4256 0000987  79.4227 280.6876 15.08843831 97225,6917.869,95.437,540.416,539.051,0.0
53589.0,STARLINK-4673,PAYLOAD,2024-05-31 14:05:49,15.0884437,9.93e-05,53.2179,269.1283,78.972,281.1384,0.00010837,1.438e-05,0.0,0 STARLINK-4673,1 53589U 22104B   24152.58737467  .00001438  00000-0  10837-3 0  9998,2 53589  53.2179 269.1283 0000993  78.9720 281.1384 15.08844370 98255,6917.867,95.437,540.419,539.045,0.0
53589.0,STARLINK-4673,PAYLOAD,2024-06-01 12:21:13,15.08833393,0.0001168,53.2178,264.9666,87.8765,272.2361,3.1483e-05,2.13e-06,0.0,0 STARLINK-4673,1 53589U 22104B   24153.51474287  .00000213  00000-0  31483-4 0  9991,2 53589  53.2178 264.9666 0001168  87.8765 272.2361 15.08833393 97376,6917.901,95.438,540.574,538.958,0.0
53589.0,STARLINK-4673,PAYLOAD,2024-06-01 13:56:36,15.08839855,0.0001137,53.2183,264.6688,91.3591,268.7531,-2.6441e-05,-7.09e-06,0.0,0 STARLINK-4673,1 53589U 22104B   24153.58098036 -.00000709  00000-0 -26441-4 0  9992,2 53589  53.2183 264.6688 0001137  91.3591 268.7531 15.08839855 98409,6917.881,95.438,540.532,538.959,0.0
53589.0,STARLINK-4673,PAYLOAD,2024-06-02 12:12:00,15.08836767,0.0001156,53.2166,260.5043,105.861,254.251,9.1863e-05,1.174e-05,0.0,0 STARLINK-4673,1 53589U 22104B   24154.50833986  .00001174  00000-0  91863-4 0  9991,2 53589  53.2166 260.5043 0001156 105.8610 254.2510 15.08836767 98545,6917.89,95.438,540.555,538.956,0.0
53589.0,STARLINK-4673,PAYLOAD,2024-06-02 16:58:09,15.08839917,0.0001202,53.2175,259.6122,107.1086,253.0038,5.9703e-05,6.62e-06,0.0,0 STARLINK-4673,1 53589U 22104B   24154.70705882  .00000662  00000-0  59703-4 0  9994,2 53589  53.2175 259.6122 0001202 107.1086 253.0038 15.08839917 97558,6917.881,95.438,540.577,538.914,0.0
